CCSDS_OMM_VERS = 2.0
CREATION_DATE  = 
ORIGINATOR     = 

OBJECT_NAME    = ALOS (DAICHI)
OBJECT_ID      = 2006-002A
CENTER_NAME    = EARTH
REF_FRAME      = TEME
TIME_SYSTEM    = UTC
MEAN_ELEMENT_THEORY = SGP/SGP4

EPOCH          = 2026-02-19T20:53:42.755136
MEAN_MOTION    = 14.69746820
ECCENTRICITY   = .0001643
INCLINATION    = 98.1190
RA_OF_ASC_NODE = 6.9199
ARG_OF_PERICENTER = 55.3285
MEAN_ANOMALY   = 304.8076

EPHEMERIS_TYPE = 0
CLASSIFICATION_TYPE = U
NORAD_CAT_ID   = 28931
ELEMENT_SET_NO = 999
REV_AT_EPOCH   = 7086
BSTAR          = .22405E-3
MEAN_MOTION_DOT = .1286E-4
MEAN_MOTION_DDOT = 0

CCSDS_OMM_VERS = 2.0
CREATION_DATE  = 
ORIGINATOR     = 

OBJECT_NAME    = H-2A R/B
OBJECT_ID      = 2006-002B
CENTER_NAME    = EARTH
REF_FRAME      = TEME
TIME_SYSTEM    = UTC
MEAN_ELEMENT_THEORY = SGP/SGP4

EPOCH          = 2026-02-19T23:43:21.584064
MEAN_MOTION    = 15.16027420
ECCENTRICITY   = .00521338
INCLINATION    = 98.2383
RA_OF_ASC_NODE = 196.5001
ARG_OF_PERICENTER = 302.1776
MEAN_ANOMALY   = 57.4403

EPHEMERIS_TYPE = 0
CLASSIFICATION_TYPE = U
NORAD_CAT_ID   = 28932
ELEMENT_SET_NO = 999
REV_AT_EPOCH   = 9175
BSTAR          = .37091001E-3
MEAN_MOTION_DOT = .7299E-4
MEAN_MOTION_DDOT = 0

CCSDS_OMM_VERS = 2.0
CREATION_DATE  = 
ORIGINATOR     = 

OBJECT_NAME    = RESURS-DK 1
OBJECT_ID      = 2006-021A
CENTER_NAME    = EARTH
REF_FRAME      = TEME
TIME_SYSTEM    = UTC
MEAN_ELEMENT_THEORY = SGP/SGP4

EPOCH          = 2026-02-20T01:52:20.604864
MEAN_MOTION    = 15.12632476
ECCENTRICITY   = .00032147
INCLINATION    = 69.9320
RA_OF_ASC_NODE = 282.5804
ARG_OF_PERICENTER = 184.1869
MEAN_ANOMALY   = 175.9271

EPHEMERIS_TYPE = 0
CLASSIFICATION_TYPE = U
NORAD_CAT_ID   = 29228
ELEMENT_SET_NO = 999
REV_AT_EPOCH   = 8486
BSTAR          = .11027179E-3
MEAN_MOTION_DOT = .1824E-4
MEAN_MOTION_DDOT = 0

CCSDS_OMM_VERS = 2.0
CREATION_DATE  = 
ORIGINATOR     = 

OBJECT_NAME    = CZ-4B R/B
OBJECT_ID      = 2006-046C
CENTER_NAME    = EARTH
REF_FRAME      = TEME
TIME_SYSTEM    = UTC
MEAN_ELEMENT_THEORY = SGP/SGP4

EPOCH          = 2026-02-20T03:03:06.065856
MEAN_MOTION    = 15.16705397
ECCENTRICITY   = .00324781
INCLINATION    = 97.5625
RA_OF_ASC_NODE = 96.0821
ARG_OF_PERICENTER = 330.8969
MEAN_ANOMALY   = 29.0452

EPHEMERIS_TYPE = 0
CLASSIFICATION_TYPE = U
NORAD_CAT_ID   = 29507
ELEMENT_SET_NO = 999
REV_AT_EPOCH   = 5738
BSTAR          = .23437973E-3
MEAN_MOTION_DOT = .4583E-4
MEAN_MOTION_DDOT = 0

CCSDS_OMM_VERS = 2.0
CREATION_DATE  = 
ORIGINATOR     = 

OBJECT_NAME    = CZ-2C R/B
OBJECT_ID      = 2007-010B
CENTER_NAME    = EARTH
REF_FRAME      = TEME
TIME_SYSTEM    = UTC
MEAN_ELEMENT_THEORY = SGP/SGP4

EPOCH          = 2026-02-20T04:24:39.246912
MEAN_MOTION    = 14.20239508
ECCENTRICITY   = .00585538
INCLINATION    = 98.3973
RA_OF_ASC_NODE = 165.3412
ARG_OF_PERICENTER = 346.2369
MEAN_ANOMALY   = 13.7210

EPHEMERIS_TYPE = 0
CLASSIFICATION_TYPE = U
NORAD_CAT_ID   = 31114
ELEMENT_SET_NO = 999
REV_AT_EPOCH   = 97723
BSTAR          = .62393055E-4
MEAN_MOTION_DOT = .94E-6
MEAN_MOTION_DDOT = 0

CCSDS_OMM_VERS = 2.0
CREATION_DATE  = 
ORIGINATOR     = 

OBJECT_NAME    = COSMO-SKYMED 1
OBJECT_ID      = 2007-023A
CENTER_NAME    = EARTH
REF_FRAME      = TEME
TIME_SYSTEM    = UTC
MEAN_ELEMENT_THEORY = SGP/SGP4

EPOCH          = 2026-02-20T06:42:18.972864
MEAN_MOTION    = 14.96391285
ECCENTRICITY   = .00014797
INCLINATION    = 97.8868
RA_OF_ASC_NODE = 242.1735
ARG_OF_PERICENTER = 89.0638
MEAN_ANOMALY   = 271.0752

EPHEMERIS_TYPE = 0
CLASSIFICATION_TYPE = U
NORAD_CAT_ID   = 31598
ELEMENT_SET_NO = 999
REV_AT_EPOCH   = 1230
BSTAR          = .30605291E-3
MEAN_MOTION_DOT = .3408E-4
MEAN_MOTION_DDOT = 0

CCSDS_OMM_VERS = 2.0
CREATION_DATE  = 
ORIGINATOR     = 

OBJECT_NAME    = COSMOS 2428
OBJECT_ID      = 2007-029A
CENTER_NAME    = EARTH
REF_FRAME      = TEME
TIME_SYSTEM    = UTC
MEAN_ELEMENT_THEORY = SGP/SGP4

EPOCH          = 2026-02-20T06:15:24.693408
MEAN_MOTION    = 14.12939982
ECCENTRICITY   = .00080704
INCLINATION    = 70.9399
RA_OF_ASC_NODE = 239.9278
ARG_OF_PERICENTER = 296.0358
MEAN_ANOMALY   = 63.9931

EPHEMERIS_TYPE = 0
CLASSIFICATION_TYPE = U
NORAD_CAT_ID   = 31792
ELEMENT_SET_NO = 999
REV_AT_EPOCH   = 96163
BSTAR          = .12852872E-3
MEAN_MOTION_DOT = .192E-5
MEAN_MOTION_DDOT = 0

CCSDS_OMM_VERS = 2.0
CREATION_DATE  = 
ORIGINATOR     = 

OBJECT_NAME    = SL-16 R/B
OBJECT_ID      = 2007-029B
CENTER_NAME    = EARTH
REF_FRAME      = TEME
TIME_SYSTEM    = UTC
MEAN_ELEMENT_THEORY = SGP/SGP4

EPOCH          = 2026-02-19T21:33:17.681184
MEAN_MOTION    = 14.14836719
ECCENTRICITY   = .0002404
INCLINATION    = 70.9747
RA_OF_ASC_NODE = 209.7812
ARG_OF_PERICENTER = 281.8562
MEAN_ANOMALY   = 188.1827

EPHEMERIS_TYPE = 0
CLASSIFICATION_TYPE = U
NORAD_CAT_ID   = 31793
ELEMENT_SET_NO = 999
REV_AT_EPOCH   = 96285
BSTAR          = -.85556E-6
MEAN_MOTION_DOT = -.5E-6
MEAN_MOTION_DDOT = 0

CCSDS_OMM_VERS = 2.0
CREATION_DATE  = 
ORIGINATOR     = 

OBJECT_NAME    = KORONAS-FOTON
OBJECT_ID      = 2009-003A
CENTER_NAME    = EARTH
REF_FRAME      = TEME
TIME_SYSTEM    = UTC
MEAN_ELEMENT_THEORY = SGP/SGP4

EPOCH          = 2026-02-20T03:01:04.140768
MEAN_MOTION    = 15.42847099
ECCENTRICITY   = .00095961
INCLINATION    = 82.4301
RA_OF_ASC_NODE = 294.1325
ARG_OF_PERICENTER = 212.9412
MEAN_ANOMALY   = 147.1238

EPHEMERIS_TYPE = 0
CLASSIFICATION_TYPE = U
NORAD_CAT_ID   = 33504
ELEMENT_SET_NO = 999
REV_AT_EPOCH   = 94303
BSTAR          = .26747283E-3
MEAN_MOTION_DOT = .11782E-3
MEAN_MOTION_DDOT = 0

CCSDS_OMM_VERS = 2.0
CREATION_DATE  = 
ORIGINATOR     = 

OBJECT_NAME    = CZ-2C R/B
OBJECT_ID      = 2011-030B
CENTER_NAME    = EARTH
REF_FRAME      = TEME
TIME_SYSTEM    = UTC
MEAN_ELEMENT_THEORY = SGP/SGP4

EPOCH          = 2026-02-19T20:14:36.790368
MEAN_MOTION    = 14.81146429
ECCENTRICITY   = .00539008
INCLINATION    = 97.8516
RA_OF_ASC_NODE = 8.4692
ARG_OF_PERICENTER = 49.4356
MEAN_ANOMALY   = 3.7014

EPHEMERIS_TYPE = 0
CLASSIFICATION_TYPE = U
NORAD_CAT_ID   = 37731
ELEMENT_SET_NO = 999
REV_AT_EPOCH   = 78745
BSTAR          = .19242856E-3
MEAN_MOTION_DOT = .1479E-4
MEAN_MOTION_DDOT = 0

CCSDS_OMM_VERS = 2.0
CREATION_DATE  = 
ORIGINATOR     = 

OBJECT_NAME    = H-2A R/B
OBJECT_ID      = 2012-025E
CENTER_NAME    = EARTH
REF_FRAME      = TEME
TIME_SYSTEM    = UTC
MEAN_ELEMENT_THEORY = SGP/SGP4

EPOCH          = 2026-02-19T20:37:17.581728
MEAN_MOTION    = 14.95004038
ECCENTRICITY   = .0045165
INCLINATION    = 98.4711
RA_OF_ASC_NODE = 16.4856
ARG_OF_PERICENTER = 13.3311
MEAN_ANOMALY   = 346.9089

EPHEMERIS_TYPE = 0
CLASSIFICATION_TYPE = U
NORAD_CAT_ID   = 38341
ELEMENT_SET_NO = 999
REV_AT_EPOCH   = 74555
BSTAR          = .34121E-3
MEAN_MOTION_DOT = .3738E-4
MEAN_MOTION_DDOT = 0

CCSDS_OMM_VERS = 2.0
CREATION_DATE  = 
ORIGINATOR     = 

OBJECT_NAME    = SHIJIAN-16 (SJ-16)
OBJECT_ID      = 2013-057A
CENTER_NAME    = EARTH
REF_FRAME      = TEME
TIME_SYSTEM    = UTC
MEAN_ELEMENT_THEORY = SGP/SGP4

EPOCH          = 2026-02-20T06:22:11.861184
MEAN_MOTION    = 14.92267391
ECCENTRICITY   = .0016262
INCLINATION    = 74.9703
RA_OF_ASC_NODE = 218.0710
ARG_OF_PERICENTER = 156.6815
MEAN_ANOMALY   = 203.5114

EPHEMERIS_TYPE = 0
CLASSIFICATION_TYPE = U
NORAD_CAT_ID   = 39358
ELEMENT_SET_NO = 999
REV_AT_EPOCH   = 66890
BSTAR          = .10058554E-3
MEAN_MOTION_DOT = .1E-4
MEAN_MOTION_DDOT = 0

